[{"OBJECT_NAME":"EOS-6 (OCEANSAT-3)","OBJECT_ID":"2022-158A","EPOCH":"2026-03-09T22:24:42.764256","MEAN_MOTION":14.47005704,"ECCENTRICITY":1.733e-5,"INCLINATION":98.3487,"RA_OF_ASC_NODE":168.4787,"ARG_OF_PERICENTER":158.292,"MEAN_ANOMALY":201.828,"EPHEMERIS_TYPE":0,"CLASSIFICATION_TYPE":"U","NORAD_CAT_ID":54361,"ELEMENT_SET_NO":999,"REV_AT_EPOCH":17348,"BSTAR":0.00014313559,"MEAN_MOTION_DOT":4.77e-6,"MEAN_MOTION_DDOT":0},{"OBJECT_NAME":"JIAOTONG VDES","OBJECT_ID":"2022-164A","EPOCH":"2026-03-10T00:04:46.178400","MEAN_MOTION":14.45999441,"ECCENTRICITY":0.00085577,"INCLINATION":98.2515,"RA_OF_ASC_NODE":90.8897,"ARG_OF_PERICENTER":269.1792,"MEAN_ANOMALY":90.8419,"EPHEMERIS_TYPE":0,"CLASSIFICATION_TYPE":"U","NORAD_CAT_ID":54588,"ELEMENT_SET_NO":999,"REV_AT_EPOCH":17174,"BSTAR":0.00012084635,"MEAN_MOTION_DOT":3.88e-6,"MEAN_MOTION_DDOT":0}]
